#aV2016  6 13  0  0  0.00000000     288 DD+AD WGS84 FIT  NGA
## 1901  86400.00000000   300.00000000 57552 0.0000000000000
+   31     1  2  3  5  6  7  8  9 10 11 12 13 14 15 16 17 18
+         19 20 21 22 23 24 25 26 27 28 29 30 31 32  0  0  0
+          0  0  0  0  0  0  0  0  0  0  0  0  0  0  0  0  0
+          0  0  0  0  0  0  0  0  0  0  0  0  0  0  0  0  0
+          0  0  0  0  0  0  0  0  0  0  0  0  0  0  0  0  0
++         2  2  2  2  2  2  2  2  2  2  2  2  2  2  2  2  2
++         2  2  2  2  2  2  2  2  2  2  2  2  2  2  0  0  0
++         0  0  0  0  0  0  0  0  0  0  0  0  0  0  0  0  0
++         0  0  0  0  0  0  0  0  0  0  0  0  0  0  0  0  0
++         0  0  0  0  0  0  0  0  0  0  0  0  0  0  0  0  0
%c cc cc ccc ccc cccc cccc cccc cccc ccccc ccccc ccccc ccccc
%c cc cc ccc ccc cccc cccc cccc cccc ccccc ccccc ccccc ccccc
%f  0.0000000  0.000000000  0.00000000000  0.000000000000000
%f  0.0000000  0.000000000  0.00000000000  0.000000000000000
%i    0    0    0    0      0      0      0      0         0
%i    0    0    0    0      0      0      0      0         0
/*      NGA, ST. LOUIS,MO.                                  
/*   EPHEMERIS COMPUTED FROM 2 DAYS OF DATA                 
/*   EPOCHA v2.4 SMOOTHER                                   
/*   G1762 IERS2010 SATAF SATAPC                            
*  2016  6 13 19 35  0.00000000
P  1  13678.084721 -16257.150567  15705.027271     23.534634                    
V  1  -1223.445604  20246.551473  22142.745523      0.012352                    
P  2 -14522.889453  -6368.893076 -20906.583114    585.637530                    
V  2   3633.247583 -27363.519501   5307.958821     -0.025673                    
P  3  21646.764333 -13664.014151  -7078.926119    -66.979545                    
V  3   9378.902444   -692.618740  29983.397966     -0.034003                    
P  5 -24483.151107   1631.721698 -10487.992113   -113.109980                    
V  5  11235.901764  -7398.703848 -27354.461527      0.029112                    
P  6  -7438.360752 -20526.775589 -15110.027353    204.307728                    
V  6   4862.305353 -18680.048697  22966.714486      0.053806                    
P  7   5729.822312 -25646.356196  -1568.141365    448.655071                    
V  7   2563.873056   2680.748404 -32067.634498     -0.024118                    
P  8  20162.699698    641.738080  17347.224074    -38.897063                    
V  8  16135.118783  14908.679301 -19320.717823     -0.014734                    
P  9   2599.225418 -16557.924536 -20611.471596    147.998719                    
V  9  21071.478261  15545.956588  -9854.247479      0.072921                    
P 10   6000.362544  14038.137417  21756.056848    -44.697882                    
V 10 -25687.529638  10038.819032    541.063225     -0.082346                    
P 11  13336.716324 -11387.758103  19383.635304   -650.839134                    
V 11   7206.508625  25154.896726   9580.650762     -0.027324                    
P 12 -23660.550647  10921.049587  -4637.387723    382.642541                    
V 12  -6072.677465   -123.546705  31815.842899      0.010799                    
P 13 -21336.718897  -9659.038418  12317.941077    -24.499868                    
V 13  -9602.680164 -12795.594884 -26482.062710     -0.025365                    
P 14  16301.903779  20457.634526   5356.866822    -19.180172                    
V 14  -6374.226358  -2619.457409  30755.695631     -0.020427                    
P 15 -19325.724786   2726.107576  18036.527843   -315.138830                    
V 15 -17784.676730 -14909.929935 -16337.348035     -0.016165                    
P 16  24250.062528    389.118537 -11381.964351    -11.077274                    
V 16 -13116.073963   5359.250040 -27648.914009      0.024351                    
P 17 -12547.375968 -20980.800160  10940.062551   -204.015770                    
V 17  11149.199555   7486.558536  27813.296796     -0.000170                    
P 18  -6551.609136  18121.886093  18725.496252    526.111410                    
V 18 -21825.087730   7152.285765 -15255.740300      0.040044                    
P 19 -18390.145870 -18845.868931    933.820162   -525.484720                    
V 19   2970.835654   -903.939583  32260.114871      0.001439                    
P 20 -22765.775762  13411.652053   2778.350271    418.234538                    
V 20  -5032.466376  -1839.796154 -30667.763662      0.022735                    
P 21  -1941.070940  26328.473743   1927.896445   -525.717172                    
V 21  -3926.110365   1095.209525 -31243.107566     -0.010859                    
P 22  24995.552554  -9030.564703   1896.892344    320.709728                    
V 22   -446.606465   4409.163275  30681.538479     -0.086434                    
P 23  12506.105593  -9584.926596 -21225.137479   -177.984594                    
V 23  21210.702351  17381.833748   4166.349923     -0.016025                    
P 24 -14590.460765  13015.836440  17828.141309    -18.519491                    
V 24   1093.009421 -22917.729465  17760.047690     -0.006058                    
P 25 -14944.543165  16318.711909 -14675.232517   -189.624716                    
V 25 -17864.565390   4953.287451  24093.249011     -0.070331                    
P 26  17598.447053   7064.727986 -18624.113888   -394.743067                    
V 26 -21440.467858  10009.935534 -16420.673139     -0.112552                    
P 27  22813.251589  10589.230828   8766.112034    103.180613                    
V 27   7342.698722   8617.686327 -29231.850245      0.042123                    
P 28  -3266.070022 -14538.254827  22614.056691    529.937615                    
V 28  25991.865794  -7722.030442  -1287.227706      0.027002                    
P 29  -6197.999194  14067.948098 -21657.725312    656.708410                    
V 29 -20641.658150 -18110.393649  -5812.752994     -0.003743                    
P 30    -63.746290 -25290.906139   7925.845023    132.807840                    
V 30   5127.616686  -9211.804066 -29426.077673      0.027470                    
P 31   8749.172474  17756.592684 -17428.386320    264.082552                    
V 31  -5903.540476  21723.472320  19410.189104     -0.018841                    
P 32  14714.848896  20071.064764   9309.689102    -24.032411                    
V 32 -10830.103827  -5350.141645  28671.001354     -0.080146                    
EOF
